{
  "norad_id": 67638,
  "name": "STARLINK-36599",
  "history": [
    {
      "epoch": "2026-03-28T13:14:29.143680Z",
      "apogee_km": 484.132938824172,
      "perigee_km": 481.7891877257571,
      "latitude_deg": 1.1383336696493571e-05,
      "longitude_deg": 9.054738191066711,
      "height_km": 482.5728432564069,
      "semi_major_axis_km": 6861.098063274964,
      "eccentricity": 0.0001708,
      "inclination_deg": 43.0015,
      "raan_deg": 33.6467,
      "arg_perigee_deg": 278.1111,
      "mean_anomaly_deg": 81.9547,
      "mean_motion_rev_day": 15.276094
    },
    {
      "epoch": "2026-03-29T04:56:03.266304Z",
      "apogee_km": 483.9742880797512,
      "perigee_km": 482.02709720257917,
      "latitude_deg": 4.9940707573083966e-05,
      "longitude_deg": 129.32622075755293,
      "height_km": 482.58230034761533,
      "semi_major_axis_km": 6861.137692641165,
      "eccentricity": 0.0001419,
      "inclination_deg": 43.0008,
      "raan_deg": 29.9548,
      "arg_perigee_deg": 281.5656,
      "mean_anomaly_deg": 78.5037,
      "mean_motion_rev_day": 15.27596165
    },
    {
      "epoch": "2026-03-29T04:56:03.267168Z",
      "apogee_km": 483.97414786226545,
      "perigee_km": 482.0272314314516,
      "latitude_deg": 4.839976765032858e-05,
      "longitude_deg": 129.32621550441763,
      "height_km": 482.5823248609324,
      "semi_major_axis_km": 6861.137689646858,
      "eccentricity": 0.00014188,
      "inclination_deg": 43.0008,
      "raan_deg": 29.9548,
      "arg_perigee_deg": 281.5656,
      "mean_anomaly_deg": 78.5037,
      "mean_motion_rev_day": 15.27596166
    }
  ]
}